[
    {
        "OBJECT_NAME": "SHIJIAN-16 (SJ-16)",
        "OBJECT_ID": "2013-057A",
        "EPOCH": "2026-05-30T19:29:27.821184",
        "MEAN_MOTION": 14.92563737,
        "ECCENTRICITY": 0.0016998,
        "INCLINATION": 74.9741,
        "RA_OF_ASC_NODE": 29.5913,
        "ARG_OF_PERICENTER": 270.5741,
        "MEAN_ANOMALY": 89.3499,
        "EPHEMERIS_TYPE": 0,
        "CLASSIFICATION_TYPE": "U",
        "NORAD_CAT_ID": 39358,
        "ELEMENT_SET_NO": 999,
        "REV_AT_EPOCH": 68375,
        "BSTAR": 0.00012288,
        "MEAN_MOTION_DOT": 1.237e-05,
        "MEAN_MOTION_DDOT": 0
    },
    {
        "OBJECT_NAME": "SL-4 R/B",
        "OBJECT_ID": "2014-021B",
        "EPOCH": "2026-05-30T19:43:52.622976",
        "MEAN_MOTION": 15.41530416,
        "ECCENTRICITY": 0.0091857,
        "INCLINATION": 51.606,
        "RA_OF_ASC_NODE": 295.8181,
        "ARG_OF_PERICENTER": 42.9666,
        "MEAN_ANOMALY": 317.8445,
        "EPHEMERIS_TYPE": 0,
        "CLASSIFICATION_TYPE": "U",
        "NORAD_CAT_ID": 39679,
        "ELEMENT_SET_NO": 999,
        "REV_AT_EPOCH": 66893,
        "BSTAR": 0.00030908,
        "MEAN_MOTION_DOT": 0.00014918,
        "MEAN_MOTION_DDOT": 0
    },
    {
        "OBJECT_NAME": "ALOS-2",
        "OBJECT_ID": "2014-029A",
        "EPOCH": "2026-05-30T19:48:14.122080",
        "MEAN_MOTION": 14.79474767,
        "ECCENTRICITY": 0.0001653,
        "INCLINATION": 97.9212,
        "RA_OF_ASC_NODE": 248.2384,
        "ARG_OF_PERICENTER": 97.5428,
        "MEAN_ANOMALY": 262.5971,
        "EPHEMERIS_TYPE": 0,
        "CLASSIFICATION_TYPE": "U",
        "NORAD_CAT_ID": 39766,
        "ELEMENT_SET_NO": 999,
        "REV_AT_EPOCH": 64901,
        "BSTAR": 0.00073637,
        "MEAN_MOTION_DOT": 5.452e-05,
        "MEAN_MOTION_DDOT": 0
    },
    {
        "OBJECT_NAME": "YAOGAN-29",
        "OBJECT_ID": "2015-069A",
        "EPOCH": "2026-05-30T20:07:20.395200",
        "MEAN_MOTION": 14.83069361,
        "ECCENTRICITY": 0.0003037,
        "INCLINATION": 98.0036,
        "RA_OF_ASC_NODE": 179.4433,
        "ARG_OF_PERICENTER": 84.7188,
        "MEAN_ANOMALY": 275.4372,
        "EPHEMERIS_TYPE": 0,
        "CLASSIFICATION_TYPE": "U",
        "NORAD_CAT_ID": 41038,
        "ELEMENT_SET_NO": 999,
        "REV_AT_EPOCH": 56805,
        "BSTAR": 0.00010021,
        "MEAN_MOTION_DOT": 7.61e-06,
        "MEAN_MOTION_DDOT": 0
    },
    {
        "OBJECT_NAME": "ASTRO-H (HITOMI)",
        "OBJECT_ID": "2016-012A",
        "EPOCH": "2026-05-30T09:22:07.412448",
        "MEAN_MOTION": 15.10429984,
        "ECCENTRICITY": 0.00094612,
        "INCLINATION": 30.9978,
        "RA_OF_ASC_NODE": 189.1205,
        "ARG_OF_PERICENTER": 74.2334,
        "MEAN_ANOMALY": 285.9347,
        "EPHEMERIS_TYPE": 0,
        "CLASSIFICATION_TYPE": "U",
        "NORAD_CAT_ID": 41337,
        "ELEMENT_SET_NO": 999,
        "REV_AT_EPOCH": 56459,
        "BSTAR": 0.00016462548,
        "MEAN_MOTION_DOT": 2.871e-05,
        "MEAN_MOTION_DDOT": 0
    },
    {
        "OBJECT_NAME": "HXMT (HUIYAN)",
        "OBJECT_ID": "2017-034A",
        "EPOCH": "2026-05-30T20:00:36.068256",
        "MEAN_MOTION": 15.18318368,
        "ECCENTRICITY": 0.0030727,
        "INCLINATION": 43.0151,
        "RA_OF_ASC_NODE": 279.6601,
        "ARG_OF_PERICENTER": 32.8128,
        "MEAN_ANOMALY": 327.4621,
        "EPHEMERIS_TYPE": 0,
        "CLASSIFICATION_TYPE": "U",
        "NORAD_CAT_ID": 42758,
        "ELEMENT_SET_NO": 999,
        "REV_AT_EPOCH": 49502,
        "BSTAR": 0.00035786,
        "MEAN_MOTION_DOT": 7.331e-05,
        "MEAN_MOTION_DDOT": 0
    },
    {
        "OBJECT_NAME": "SAOCOM 1A",
        "OBJECT_ID": "2018-076A",
        "EPOCH": "2026-05-30T18:51:39.142944",
        "MEAN_MOTION": 14.82158523,
        "ECCENTRICITY": 0.0001499,
        "INCLINATION": 97.8881,
        "RA_OF_ASC_NODE": 337.7879,
        "ARG_OF_PERICENTER": 83.3946,
        "MEAN_ANOMALY": 276.7438,
        "EPHEMERIS_TYPE": 0,
        "CLASSIFICATION_TYPE": "U",
        "NORAD_CAT_ID": 43641,
        "ELEMENT_SET_NO": 999,
        "REV_AT_EPOCH": 41352,
        "BSTAR": 9.1729e-06,
        "MEAN_MOTION_DOT": 2.1e-07,
        "MEAN_MOTION_DDOT": 0
    },
    {
        "OBJECT_NAME": "H-2A R/B",
        "OBJECT_ID": "2018-084L",
        "EPOCH": "2026-05-30T13:47:24.351360",
        "MEAN_MOTION": 15.44419424,
        "ECCENTRICITY": 0.002468,
        "INCLINATION": 98.8602,
        "RA_OF_ASC_NODE": 25.6258,
        "ARG_OF_PERICENTER": 98.6354,
        "MEAN_ANOMALY": 261.7687,
        "EPHEMERIS_TYPE": 0,
        "CLASSIFICATION_TYPE": "U",
        "NORAD_CAT_ID": 43682,
        "ELEMENT_SET_NO": 999,
        "REV_AT_EPOCH": 41840,
        "BSTAR": 0.00052048,
        "MEAN_MOTION_DOT": 0.00024266,
        "MEAN_MOTION_DDOT": 0
    },
    {
        "OBJECT_NAME": "SAOCOM 1B",
        "OBJECT_ID": "2020-059A",
        "EPOCH": "2026-05-30T19:36:38.981376",
        "MEAN_MOTION": 14.82157636,
        "ECCENTRICITY": 0.0001498,
        "INCLINATION": 97.8883,
        "RA_OF_ASC_NODE": 336.9129,
        "ARG_OF_PERICENTER": 86.357,
        "MEAN_ANOMALY": 273.7815,
        "EPHEMERIS_TYPE": 0,
        "CLASSIFICATION_TYPE": "U",
        "NORAD_CAT_ID": 46265,
        "ELEMENT_SET_NO": 999,
        "REV_AT_EPOCH": 31091,
        "BSTAR": 0.00012863,
        "MEAN_MOTION_DOT": 9.72e-06,
        "MEAN_MOTION_DDOT": 0
    },
    {
        "OBJECT_NAME": "CSS (TIANHE)",
        "OBJECT_ID": "2021-035A",
        "EPOCH": "2026-05-30T19:47:24.042912",
        "MEAN_MOTION": 15.60030932,
        "ECCENTRICITY": 0.0010511,
        "INCLINATION": 41.4695,
        "RA_OF_ASC_NODE": 67.6061,
        "ARG_OF_PERICENTER": 311.2281,
        "MEAN_ANOMALY": 48.7651,
        "EPHEMERIS_TYPE": 0,
        "CLASSIFICATION_TYPE": "U",
        "NORAD_CAT_ID": 48274,
        "ELEMENT_SET_NO": 999,
        "REV_AT_EPOCH": 29045,
        "BSTAR": 0.00026142,
        "MEAN_MOTION_DOT": 0.00021542,
        "MEAN_MOTION_DDOT": 0
    },
    {
        "OBJECT_NAME": "COSMOS 2550",
        "OBJECT_ID": "2021-056A",
        "EPOCH": "2026-05-30T20:58:36.756192",
        "MEAN_MOTION": 15.33779035,
        "ECCENTRICITY": 0.0008174,
        "INCLINATION": 67.1408,
        "RA_OF_ASC_NODE": 152.2746,
        "ARG_OF_PERICENTER": 271.2579,
        "MEAN_ANOMALY": 88.7638,
        "EPHEMERIS_TYPE": 0,
        "CLASSIFICATION_TYPE": "U",
        "NORAD_CAT_ID": 48865,
        "ELEMENT_SET_NO": 999,
        "REV_AT_EPOCH": 27606,
        "BSTAR": 0.00020353,
        "MEAN_MOTION_DOT": 6.499e-05,
        "MEAN_MOTION_DDOT": 0
    },
    {
        "OBJECT_NAME": "CZ-2C R/B",
        "OBJECT_ID": "2022-058K",
        "EPOCH": "2026-05-30T18:27:55.474848",
        "MEAN_MOTION": 15.60566005,
        "ECCENTRICITY": 0.0033826,
        "INCLINATION": 50.1864,
        "RA_OF_ASC_NODE": 254.0663,
        "ARG_OF_PERICENTER": 194.1089,
        "MEAN_ANOMALY": 165.8942,
        "EPHEMERIS_TYPE": 0,
        "CLASSIFICATION_TYPE": "U",
        "NORAD_CAT_ID": 52794,
        "ELEMENT_SET_NO": 999,
        "REV_AT_EPOCH": 22292,
        "BSTAR": 0.00050816,
        "MEAN_MOTION_DOT": 0.00043767,
        "MEAN_MOTION_DDOT": 0
    }
]