SHIJIAN-16 (SJ-16)      
1 39358U 13057A   26150.81212756  .00001237  00000+0  12288-3 0  9996
2 39358  74.9741  29.5913 0016998 270.5741  89.3499 14.92563737683758
SL-4 R/B                
1 39679U 14021B   26150.82213684  .00014918  00000+0  30908-3 0  9995
2 39679  51.6060 295.8181 0091857  42.9666 317.8445 15.41530416668935
ALOS-2                  
1 39766U 14029A   26150.82516345  .00005452  00000+0  73637-3 0  9999
2 39766  97.9212 248.2384 0001653  97.5428 262.5971 14.79474767649012
YAOGAN-29               
1 41038U 15069A   26150.83843050  .00000761  00000+0  10021-3 0  9992
2 41038  98.0036 179.4433 0003037  84.7188 275.4372 14.83069361568059
ASTRO-H (HITOMI)        
1 41337U 16012A   26150.39036357  .00002871  00000+0  16463-3 0  9998
2 41337  30.9978 189.1205 0009461  74.2334 285.9347 15.10429984564595
HXMT (HUIYAN)           
1 42758U 17034A   26150.83375079  .00007331  00000+0  35786-3 0  9992
2 42758  43.0151 279.6601 0030727  32.8128 327.4621 15.18318368495025
SAOCOM 1A               
1 43641U 18076A   26150.78586971  .00000021  00000+0  91729-5 0  9990
2 43641  97.8881 337.7879 0001499  83.3946 276.7438 14.82158523413522
H-2A R/B                
1 43682U 18084L   26150.57458740  .00024266  00000+0  52048-3 0  9999
2 43682  98.8602  25.6258 0024680  98.6354 261.7687 15.44419424418403
SAOCOM 1B               
1 46265U 20059A   26150.81711784  .00000972  00000+0  12863-3 0  9990
2 46265  97.8883 336.9129 0001498  86.3570 273.7815 14.82157636310912
CSS (TIANHE)            
1 48274U 21035A   26150.82458383  .00021542  00000+0  26142-3 0  9992
2 48274  41.4695  67.6061 0010511 311.2281  48.7651 15.60030932290458
COSMOS 2550             
1 48865U 21056A   26150.87403653  .00006499  00000+0  20353-3 0  9998
2 48865  67.1408 152.2746 0008174 271.2579  88.7638 15.33779035276063
CZ-2C R/B               
1 52794U 22058K   26150.76939207  .00043767  00000+0  50816-3 0  9990
2 52794  50.1864 254.0663 0033826 194.1089 165.8942 15.60566005222929
